[{"OBJECT_NAME":"STARLINK-31210","OBJECT_ID":"2024-038L","EPOCH":"2026-03-09T06:33:39.084192","MEAN_MOTION":15.27570671,"ECCENTRICITY":0.00013321,"INCLINATION":43.0051,"RA_OF_ASC_NODE":25.9971,"ARG_OF_PERICENTER":270.8721,"MEAN_ANOMALY":89.1978,"EPHEMERIS_TYPE":0,"CLASSIFICATION_TYPE":"U","NORAD_CAT_ID":59033,"ELEMENT_SET_NO":999,"REV_AT_EPOCH":11479,"BSTAR":-3.467489e-5,"MEAN_MOTION_DOT":-1.216e-5,"MEAN_MOTION_DDOT":0},{"OBJECT_NAME":"ELECTRON KICK STAGE R\/B","OBJECT_ID":"2024-114G","EPOCH":"2026-03-09T16:42:35.427168","MEAN_MOTION":15.12630878,"ECCENTRICITY":0.00674954,"INCLINATION":97.9507,"RA_OF_ASC_NODE":118.387,"ARG_OF_PERICENTER":79.3604,"MEAN_ANOMALY":281.5218,"EPHEMERIS_TYPE":0,"CLASSIFICATION_TYPE":"U","NORAD_CAT_ID":60085,"ELEMENT_SET_NO":999,"REV_AT_EPOCH":9434,"BSTAR":0.00053349816,"MEAN_MOTION_DOT":9.787e-5,"MEAN_MOTION_DDOT":0}]
